STARLINK-37398          
1 69249U 26117M   26162.83335647 -.00112157  00000+0 -57054-3 0  9995
2 69249  53.1590 270.2598 0000903  66.5228 167.8468 15.80932081  3380
STARLINK-37499          
1 69250U 26117N   26162.83335647 -.00089144  00000+0 -42905-3 0  9995
2 69250  53.1585 270.2330 0001044 106.8783 140.3533 15.82028333  3388
STARLINK-37489          
1 69251U 26117P   26162.83335647 -.00072859  00000+0 -34952-3 0  9994
2 69251  53.1587 270.2122 0000650  98.8519 158.4051 15.82021666  3386
STARLINK-37434          
1 69252U 26117Q   26162.83335647  .00033652  00000+0  16479-3 0  9995
2 69252  53.1587 270.1765 0001146  61.7660 212.4180 15.81975635  3316
STARLINK-37368          
1 69253U 26117R   26162.83335647 -.00058971  00000+0 -28194-3 0  9996
2 69253  53.1590 270.0969 0000850  47.7839 264.8364 15.82009918  3384
STARLINK-37517          
1 69254U 26117S   26162.83335647 -.00077821  00000+0 -37380-3 0  9999
2 69254  53.1587 270.0817 0000995  62.6381 257.4989 15.82018920  3385
STARLINK-37378          
1 69255U 26117T   26162.83335647 -.00081698  00000+0 -39271-3 0  9998
2 69255  53.1589 270.0773 0000837  51.1497 270.8676 15.82022640  3303
STARLINK-37396          
1 69256U 26117U   26162.83335647 -.00073804  00000+0 -35417-3 0  9997
2 69256  53.1585 270.0476 0001081  33.3462 302.6442 15.82018547  3380
STARLINK-37508          
1 69257U 26117V   26162.83335647 -.00041096  00000+0 -20547-3 0  9994
2 69257  53.1589 270.0277 0001019  80.5264 264.7327 15.80892503  3301
STARLINK-37276          
1 69258U 26117W   26162.83335647 -.01913731  00000+0 -87911-2 0  9997
2 69258  53.1552 269.7304 0001334  55.6910  72.7435 15.85770563  3302
STARLINK-37518          
1 69259U 26117X   26162.83335647 -.01801186  00000+0 -91272-2 0  9993
2 69259  53.1559 269.7310 0000862  70.4482  57.9437 15.83578060  3315
STARLINK-37478          
1 69260U 26117Y   26162.83335647 -.01910108  00000+0 -95230-2 0  9998
2 69260  53.1557 269.7358 0001118  50.9135  75.0960 15.84087447  3317
STARLINK-37506          
1 69261U 26117Z   26162.83335647 -.01835069  00000+0 -93819-2 0  9992
2 69261  53.1555 269.7261 0001120  51.0529  79.3187 15.83443910  3319
STARLINK-37503          
1 69262U 26117AA  26162.83335647 -.01856160  00000+0 -95731-2 0  9993
2 69262  53.1563 269.7225 0001124  56.0187  76.1308 15.83295338  3317
STARLINK-37502          
1 69263U 26117AB  26162.83335647 -.01296601  00000+0 -66717-2 0  9994
2 69263  53.1561 269.7171 0000954  65.4147  69.0085 15.83247007  3319
STARLINK-37486          
1 69264U 26117AC  26162.83335647 -.00980038  00000+0 -47759-2 0  9993
2 69264  53.1551 269.7090 0001064  58.7474  79.6707 15.84069320  3319
STARLINK-37435          
1 69265U 26117AD  26162.83335647 -.01343419  00000+0 -73950-2 0  9993
2 69265  53.1564 269.7144 0001195  52.7868  82.6630 15.81929503  3314
STARLINK-37464          
1 69266U 26117AE  26162.83335647  .00138490  00000+0  66091-3 0  9991
2 69266  53.1568 269.7046 0001217  60.6186  79.3282 15.81929990  3312
KUIPER-00282            
1 69267U 26118A   26162.68673727  .00018914  00000+0  56277-3 0  9993
2 69267  51.8594  80.0598 0011893 160.2548 199.8900 15.34689983  3131
KUIPER-00383            
1 69268U 26118B   26162.68370522  .00008288  00000+0  25318-3 0  9996
2 69268  51.8593  80.0408 0010803 162.1296 198.0071 15.34712147  3131
KUIPER-00527            
1 69269U 26118C   26162.48510589 -.00184993  00000+0 -54528-2 0  9998
2 69269  51.8615  80.9621 0010264 153.1194 207.0325 15.35131806  3109
KUIPER-00562            
1 69270U 26118D   26162.85501065  .00029386  00000+0  76745-3 0  9998
2 69270  51.8717  78.9404 0001854 107.1512 252.9678 15.38548315  3164
KUIPER-00570            
1 69271U 26118E   26162.68284626 -.00010191  00000+0 -28099-3 0  9996
2 69271  51.8574  80.0333 0011955 165.1210 195.0130 15.35336010  3134
KUIPER-00572            
1 69272U 26118F   26162.67361565  .00018247  00000+0  50742-3 0  9992
2 69272  51.8671  79.9791 0007384 150.1552 209.9856 15.36878580  3136
KUIPER-00581            
1 69273U 26118G   26162.67624433  .00017995  00000+0  50543-3 0  9997
2 69273  51.8653  79.9967 0008884 154.9258 205.2162 15.36565611  3220
KUIPER-00584            
1 69274U 26118H   26162.68478770 -.00000452  00000+0 -18212-5 0  9991
2 69274  51.8610  80.0482 0011371 168.6749 191.4495 15.35181182  3132
KUIPER-00587            
1 69275U 26118J   26162.67574574  .00012707  00000+0  36067-3 0  9990
2 69275  51.8624  79.9923 0008364 157.0417 203.0944 15.36539127  3133
KUIPER-00590            
1 69276U 26118K   26162.79630595  .00021857  00000+0  58854-3 0  9994
2 69276  51.8680  79.3037 0004479 139.9104 220.2214 15.37770028  3152
KUIPER-00592            
1 69277U 26118L   26162.79452479  .00023827  00000+0  63563-3 0  9990
2 69277  51.8706  79.2903 0003711 120.2297 239.9058 15.38007744  3159
KUIPER-00593            
1 69278U 26118M   26162.79497304  .00022240  00000+0  59606-3 0  9998
2 69278  51.8710  79.2919 0004048 135.1742 224.9572 15.37905189  3217
