OBJECT_NAME,OBJECT_ID,EPOCH,MEAN_MOTION,ECCENTRICITY,INCLINATION,RA_OF_ASC_NODE,ARG_OF_PERICENTER,MEAN_ANOMALY,EPHEMERIS_TYPE,CLASSIFICATION_TYPE,NORAD_CAT_ID,ELEMENT_SET_NO,REV_AT_EPOCH,BSTAR,MEAN_MOTION_DOT,MEAN_MOTION_DDOT
STARLINK-37398,2026-117M,2026-06-11T20:00:01.999008,15.80932081,.0000903,53.1590,270.2598,66.5228,167.8468,0,U,69249,999,338,-.57054E-3,-.112157E-2,0
STARLINK-37499,2026-117N,2026-06-11T20:00:01.999008,15.82028333,.0001044,53.1585,270.2330,106.8783,140.3533,0,U,69250,999,338,-.42905E-3,-.89144E-3,0
STARLINK-37489,2026-117P,2026-06-11T20:00:01.999008,15.82021666,.000065,53.1587,270.2122,98.8519,158.4051,0,U,69251,999,338,-.34952E-3,-.72859E-3,0
STARLINK-37434,2026-117Q,2026-06-11T20:00:01.999008,15.81975635,.0001146,53.1587,270.1765,61.7660,212.4180,0,U,69252,999,331,.16479E-3,.33652E-3,0
STARLINK-37368,2026-117R,2026-06-11T20:00:01.999008,15.82009918,.000085,53.1590,270.0969,47.7839,264.8364,0,U,69253,999,338,-.28194E-3,-.58971E-3,0
STARLINK-37517,2026-117S,2026-06-11T20:00:01.999008,15.82018920,.0000995,53.1587,270.0817,62.6381,257.4989,0,U,69254,999,338,-.3738E-3,-.77821E-3,0
STARLINK-37378,2026-117T,2026-06-11T20:00:01.999008,15.82022640,.0000837,53.1589,270.0773,51.1497,270.8676,0,U,69255,999,330,-.39271E-3,-.81698E-3,0
STARLINK-37396,2026-117U,2026-06-11T20:00:01.999008,15.82018547,.0001081,53.1585,270.0476,33.3462,302.6442,0,U,69256,999,338,-.35417E-3,-.73804E-3,0
STARLINK-37508,2026-117V,2026-06-11T20:00:01.999008,15.80892503,.0001019,53.1589,270.0277,80.5264,264.7327,0,U,69257,999,330,-.20547E-3,-.41096E-3,0
STARLINK-37276,2026-117W,2026-06-11T20:00:01.999008,15.85770563,.0001334,53.1552,269.7304,55.6910,72.7435,0,U,69258,999,330,-.87911E-2,-.1913731E-1,0
STARLINK-37518,2026-117X,2026-06-11T20:00:01.999008,15.83578060,.0000862,53.1559,269.7310,70.4482,57.9437,0,U,69259,999,331,-.91272E-2,-.1801186E-1,0
STARLINK-37478,2026-117Y,2026-06-11T20:00:01.999008,15.84087447,.0001118,53.1557,269.7358,50.9135,75.0960,0,U,69260,999,331,-.9523E-2,-.1910108E-1,0
STARLINK-37506,2026-117Z,2026-06-11T20:00:01.999008,15.83443910,.000112,53.1555,269.7261,51.0529,79.3187,0,U,69261,999,331,-.93819E-2,-.1835069E-1,0
STARLINK-37503,2026-117AA,2026-06-11T20:00:01.999008,15.83295338,.0001124,53.1563,269.7225,56.0187,76.1308,0,U,69262,999,331,-.95731E-2,-.185616E-1,0
STARLINK-37502,2026-117AB,2026-06-11T20:00:01.999008,15.83247007,.0000954,53.1561,269.7171,65.4147,69.0085,0,U,69263,999,331,-.66717E-2,-.1296601E-1,0
STARLINK-37486,2026-117AC,2026-06-11T20:00:01.999008,15.84069320,.0001064,53.1551,269.7090,58.7474,79.6707,0,U,69264,999,331,-.47759E-2,-.980038E-2,0
STARLINK-37435,2026-117AD,2026-06-11T20:00:01.999008,15.81929503,.0001195,53.1564,269.7144,52.7868,82.6630,0,U,69265,999,331,-.7395E-2,-.1343419E-1,0
STARLINK-37464,2026-117AE,2026-06-11T20:00:01.999008,15.81929990,.0001217,53.1568,269.7046,60.6186,79.3282,0,U,69266,999,331,.66091E-3,.13849E-2,0
KUIPER-00282,2026-118A,2026-06-11T16:28:54.100128,15.34689983,.0011893,51.8594,80.0598,160.2548,199.8900,0,U,69267,999,313,.56277E-3,.18914E-3,0
KUIPER-00383,2026-118B,2026-06-11T16:24:32.131008,15.34712147,.0010803,51.8593,80.0408,162.1296,198.0071,0,U,69268,999,313,.25318E-3,.8288E-4,0
KUIPER-00527,2026-118C,2026-06-11T11:38:33.148896,15.35131806,.0010264,51.8615,80.9621,153.1194,207.0325,0,U,69269,999,310,-.54528E-2,-.184993E-2,0
KUIPER-00562,2026-118D,2026-06-11T20:31:12.920160,15.38548315,.0001854,51.8717,78.9404,107.1512,252.9678,0,U,69270,999,316,.76745E-3,.29386E-3,0
KUIPER-00570,2026-118E,2026-06-11T16:23:17.916864,15.35336010,.0011955,51.8574,80.0333,165.1210,195.0130,0,U,69271,999,313,-.28099E-3,-.10191E-3,0
KUIPER-00572,2026-118F,2026-06-11T16:10:00.392160,15.36878580,.0007384,51.8671,79.9791,150.1552,209.9856,0,U,69272,999,313,.50742E-3,.18247E-3,0
KUIPER-00581,2026-118G,2026-06-11T16:13:47.510112,15.36565611,.0008884,51.8653,79.9967,154.9258,205.2162,0,U,69273,999,322,.50543E-3,.17995E-3,0
KUIPER-00584,2026-118H,2026-06-11T16:26:05.657280,15.35181182,.0011371,51.8610,80.0482,168.6749,191.4495,0,U,69274,999,313,-.18212E-5,-.452E-5,0
KUIPER-00587,2026-118J,2026-06-11T16:13:04.431936,15.36539127,.0008364,51.8624,79.9923,157.0417,203.0944,0,U,69275,999,313,.36067E-3,.12707E-3,0
KUIPER-00590,2026-118K,2026-06-11T19:06:40.834080,15.37770028,.0004479,51.8680,79.3037,139.9104,220.2214,0,U,69276,999,315,.58854E-3,.21857E-3,0
KUIPER-00592,2026-118L,2026-06-11T19:04:06.941856,15.38007744,.0003711,51.8706,79.2903,120.2297,239.9058,0,U,69277,999,315,.63563E-3,.23827E-3,0
KUIPER-00593,2026-118M,2026-06-11T19:04:45.670656,15.37905189,.0004048,51.8710,79.2919,135.1742,224.9572,0,U,69278,999,321,.59606E-3,.2224E-3,0
